[{"OBJECT_NAME":"ONEWEB-0056","OBJECT_ID":"2020-008AE","EPOCH":"2026-05-17T03:08:48.475104","MEAN_MOTION":13.10840087,"ECCENTRICITY":0.0001651,"INCLINATION":87.8858,"RA_OF_ASC_NODE":42.441,"ARG_OF_PERICENTER":84.9827,"MEAN_ANOMALY":275.1489,"EPHEMERIS_TYPE":0,"CLASSIFICATION_TYPE":"U","NORAD_CAT_ID":45159,"ELEMENT_SET_NO":999,"REV_AT_EPOCH":30411,"BSTAR":-0.00027256000000000003,"MEAN_MOTION_DOT":-8.3e-07,"MEAN_MOTION_DDOT":0.0},{"OBJECT_NAME":"ONEWEB-0057","OBJECT_ID":"2020-008AF","EPOCH":"2026-05-17T03:30:52.633728","MEAN_MOTION":13.10373098,"ECCENTRICITY":0.0002314,"INCLINATION":87.8856,"RA_OF_ASC_NODE":42.4503,"ARG_OF_PERICENTER":85.5315,"MEAN_ANOMALY":274.6077,"EPHEMERIS_TYPE":0,"CLASSIFICATION_TYPE":"U","NORAD_CAT_ID":45160,"ELEMENT_SET_NO":999,"REV_AT_EPOCH":30428,"BSTAR":-0.0017759,"MEAN_MOTION_DOT":-6.07e-06,"MEAN_MOTION_DDOT":0.0},{"OBJECT_NAME":"ONEWEB-0058","OBJECT_ID":"2020-008AG","EPOCH":"2026-05-17T03:11:45.595968","MEAN_MOTION":13.10369929,"ECCENTRICITY":0.0001819,"INCLINATION":87.885,"RA_OF_ASC_NODE":42.4603,"ARG_OF_PERICENTER":72.202,"MEAN_ANOMALY":287.9305,"EPHEMERIS_TYPE":0,"CLASSIFICATION_TYPE":"U","NORAD_CAT_ID":45161,"ELEMENT_SET_NO":999,"REV_AT_EPOCH":30435,"BSTAR":-0.00075016,"MEAN_MOTION_DOT":-2.49e-06,"MEAN_MOTION_DDOT":0.0},{"OBJECT_NAME":"ONEWEB-0059","OBJECT_ID":"2020-008AH","EPOCH":"2026-05-17T03:06:47.501280","MEAN_MOTION":13.10370643,"ECCENTRICITY":0.0002018,"INCLINATION":87.8848,"RA_OF_ASC_NODE":42.4602,"ARG_OF_PERICENTER":74.9454,"MEAN_ANOMALY":285.1897,"EPHEMERIS_TYPE":0,"CLASSIFICATION_TYPE":"U","NORAD_CAT_ID":45162,"ELEMENT_SET_NO":999,"REV_AT_EPOCH":30425,"BSTAR":-0.00017129,"MEAN_MOTION_DOT":-4.7e-07,"MEAN_MOTION_DDOT":0.0},{"OBJECT_NAME":"ONEWEB-0062","OBJECT_ID":"2020-008AJ","EPOCH":"2026-05-17T03:40:01.903584","MEAN_MOTION":13.10373478,"ECCENTRICITY":0.0001615,"INCLINATION":87.8865,"RA_OF_ASC_NODE":42.4403,"ARG_OF_PERICENTER":67.719,"MEAN_ANOMALY":292.4109,"EPHEMERIS_TYPE":0,"CLASSIFICATION_TYPE":"U","NORAD_CAT_ID":45163,"ELEMENT_SET_NO":999,"REV_AT_EPOCH":30412,"BSTAR":-0.0017793000000000002,"MEAN_MOTION_DOT":-6.08e-06,"MEAN_MOTION_DDOT":0.0},{"OBJECT_NAME":"ONEWEB-0065","OBJECT_ID":"2020-008AK","EPOCH":"2026-05-17T02:37:55.444800","MEAN_MOTION":13.10373066,"ECCENTRICITY":0.0002074,"INCLINATION":87.8858,"RA_OF_ASC_NODE":42.4573,"ARG_OF_PERICENTER":89.1802,"MEAN_ANOMALY":270.9563,"EPHEMERIS_TYPE":0,"CLASSIFICATION_TYPE":"U","NORAD_CAT_ID":45164,"ELEMENT_SET_NO":999,"REV_AT_EPOCH":30381,"BSTAR":0.0018598999999999998,"MEAN_MOTION_DOT":6.62e-06,"MEAN_MOTION_DDOT":0.0},{"OBJECT_NAME":"ONEWEB-0066","OBJECT_ID":"2020-020A","EPOCH":"2026-05-17T04:05:05.247168","MEAN_MOTION":13.11414432,"ECCENTRICITY":0.0001958,"INCLINATION":87.8917,"RA_OF_ASC_NODE":27.2405,"ARG_OF_PERICENTER":76.8268,"MEAN_ANOMALY":283.3079,"EPHEMERIS_TYPE":0,"CLASSIFICATION_TYPE":"U","NORAD_CAT_ID":45424,"ELEMENT_SET_NO":999,"REV_AT_EPOCH":29861,"BSTAR":-0.00078528,"MEAN_MOTION_DOT":-2.66e-06,"MEAN_MOTION_DDOT":0.0},{"OBJECT_NAME":"ONEWEB-0067","OBJECT_ID":"2020-020B","EPOCH":"2026-05-17T03:10:00.212160","MEAN_MOTION":13.11424129,"ECCENTRICITY":0.0002,"INCLINATION":87.8936,"RA_OF_ASC_NODE":27.1647,"ARG_OF_PERICENTER":85.733,"MEAN_ANOMALY":274.4027,"EPHEMERIS_TYPE":0,"CLASSIFICATION_TYPE":"U","NORAD_CAT_ID":45425,"ELEMENT_SET_NO":999,"REV_AT_EPOCH":29866,"BSTAR":0.0007516500000000001,"MEAN_MOTION_DOT":2.79e-06,"MEAN_MOTION_DDOT":0.0},{"OBJECT_NAME":"ONEWEB-0080","OBJECT_ID":"2020-020C","EPOCH":"2026-05-17T03:09:08.623584","MEAN_MOTION":13.11419799,"ECCENTRICITY":0.0001596,"INCLINATION":87.893,"RA_OF_ASC_NODE":27.242,"ARG_OF_PERICENTER":72.6125,"MEAN_ANOMALY":287.5177,"EPHEMERIS_TYPE":0,"CLASSIFICATION_TYPE":"U","NORAD_CAT_ID":45426,"ELEMENT_SET_NO":999,"REV_AT_EPOCH":29863,"BSTAR":0.00089773,"MEAN_MOTION_DOT":3.31e-06,"MEAN_MOTION_DDOT":0.0},{"OBJECT_NAME":"ONEWEB-0090","OBJECT_ID":"2020-020D","EPOCH":"2026-05-17T03:50:38.630112","MEAN_MOTION":13.11414208,"ECCENTRICITY":0.0001759,"INCLINATION":87.8921,"RA_OF_ASC_NODE":27.2413,"ARG_OF_PERICENTER":79.9741,"MEAN_ANOMALY":280.1586,"EPHEMERIS_TYPE":0,"CLASSIFICATION_TYPE":"U","NORAD_CAT_ID":45427,"ELEMENT_SET_NO":999,"REV_AT_EPOCH":29860,"BSTAR":0.000439,"MEAN_MOTION_DOT":1.68e-06,"MEAN_MOTION_DDOT":0.0},{"OBJECT_NAME":"ONEWEB-0061","OBJECT_ID":"2020-020E","EPOCH":"2026-05-17T02:46:44.980896","MEAN_MOTION":13.11417017,"ECCENTRICITY":0.0001854,"INCLINATION":87.8924,"RA_OF_ASC_NODE":27.2353,"ARG_OF_PERICENTER":79.5832,"MEAN_ANOMALY":280.5505,"EPHEMERIS_TYPE":0,"CLASSIFICATION_TYPE":"U","NORAD_CAT_ID":45428,"ELEMENT_SET_NO":999,"REV_AT_EPOCH":29855,"BSTAR":-0.0011115,"MEAN_MOTION_DOT":-3.81e-06,"MEAN_MOTION_DDOT":0.0},{"OBJECT_NAME":"ONEWEB-0081","OBJECT_ID":"2020-020F","EPOCH":"2026-05-17T04:09:58.360032","MEAN_MOTION":13.11402612,"ECCENTRICITY":0.0001946,"INCLINATION":87.8916,"RA_OF_ASC_NODE":27.2354,"ARG_OF_PERICENTER":80.1625,"MEAN_ANOMALY":279.9723,"EPHEMERIS_TYPE":0,"CLASSIFICATION_TYPE":"U","NORAD_CAT_ID":45429,"ELEMENT_SET_NO":999,"REV_AT_EPOCH":29867,"BSTAR":0.0058662,"MEAN_MOTION_DOT":2.092e-05,"MEAN_MOTION_DDOT":0.0},{"OBJECT_NAME":"ONEWEB-0069","OBJECT_ID":"2020-020G","EPOCH":"2026-05-17T04:07:12.800352","MEAN_MOTION":13.10857074,"ECCENTRICITY":0.0001925,"INCLINATION":87.8917,"RA_OF_ASC_NODE":27.2364,"ARG_OF_PERICENTER":80.7687,"MEAN_ANOMALY":279.3658,"EPHEMERIS_TYPE":0,"CLASSIFICATION_TYPE":"U","NORAD_CAT_ID":45430,"ELEMENT_SET_NO":999,"REV_AT_EPOCH":29860,"BSTAR":-0.0011124000000000002,"MEAN_MOTION_DOT":-3.78e-06,"MEAN_MOTION_DDOT":0.0},{"OBJECT_NAME":"ONEWEB-0031","OBJECT_ID":"2020-020H","EPOCH":"2026-05-17T03:13:49.571328","MEAN_MOTION":13.11417322,"ECCENTRICITY":0.0001689,"INCLINATION":87.8914,"RA_OF_ASC_NODE":27.2529,"ARG_OF_PERICENTER":76.7763,"MEAN_ANOMALY":283.3553,"EPHEMERIS_TYPE":0,"CLASSIFICATION_TYPE":"U","NORAD_CAT_ID":45431,"ELEMENT_SET_NO":999,"REV_AT_EPOCH":29858,"BSTAR":0.0012445000000000002,"MEAN_MOTION_DOT":4.54e-06,"MEAN_MOTION_DDOT":0.0},{"OBJECT_NAME":"ONEWEB-0027","OBJECT_ID":"2020-020J","EPOCH":"2026-05-17T04:08:09.250656","MEAN_MOTION":13.17429462,"ECCENTRICITY":0.000188,"INCLINATION":87.9173,"RA_OF_ASC_NODE":12.0135,"ARG_OF_PERICENTER":81.7639,"MEAN_ANOMALY":278.3706,"EPHEMERIS_TYPE":0,"CLASSIFICATION_TYPE":"U","NORAD_CAT_ID":45432,"ELEMENT_SET_NO":999,"REV_AT_EPOCH":30227,"BSTAR":-0.06610200000000001,"MEAN_MOTION_DOT":-0.00025498,"MEAN_MOTION_DDOT":0.0},{"OBJECT_NAME":"ONEWEB-0064","OBJECT_ID":"2020-020K","EPOCH":"2026-05-17T03:11:24.402048","MEAN_MOTION":13.11417032,"ECCENTRICITY":0.0001774,"INCLINATION":87.8929,"RA_OF_ASC_NODE":27.2426,"ARG_OF_PERICENTER":80.0369,"MEAN_ANOMALY":280.0959,"EPHEMERIS_TYPE":0,"CLASSIFICATION_TYPE":"U","NORAD_CAT_ID":45433,"ELEMENT_SET_NO":999,"REV_AT_EPOCH":29861,"BSTAR":0.0033012000000000002,"MEAN_MOTION_DOT":1.183e-05,"MEAN_MOTION_DDOT":0.0}]