ONEWEB-0056             
1 45159U 20008AE  26137.13111661 -.00000083  00000+0 -27256-3 0  9990
2 45159  87.8858  42.4410 0001651  84.9827 275.1489 13.10840087304113
ONEWEB-0057             
1 45160U 20008AF  26137.14644252 -.00000607  00000+0 -17759-2 0  9998
2 45160  87.8856  42.4503 0002314  85.5315 274.6077 13.10373098304280
ONEWEB-0058             
1 45161U 20008AG  26137.13316662 -.00000249  00000+0 -75016-3 0  9992
2 45161  87.8850  42.4603 0001819  72.2020 287.9305 13.10369929304358
ONEWEB-0059             
1 45162U 20008AH  26137.12971645 -.00000047  00000+0 -17129-3 0  9997
2 45162  87.8848  42.4602 0002018  74.9454 285.1897 13.10370643304257
ONEWEB-0062             
1 45163U 20008AJ  26137.15279981 -.00000608  00000+0 -17793-2 0  9994
2 45163  87.8865  42.4403 0001615  67.7190 292.4109 13.10373478304127
ONEWEB-0065             
1 45164U 20008AK  26137.10966950  .00000662  00000+0  18599-2 0  9992
2 45164  87.8858  42.4573 0002074  89.1802 270.9563 13.10373066303819
ONEWEB-0066             
1 45424U 20020A   26137.17019962 -.00000266  00000+0 -78528-3 0  9995
2 45424  87.8917  27.2405 0001958  76.8268 283.3079 13.11414432298613
ONEWEB-0067             
1 45425U 20020B   26137.13194690  .00000279  00000+0  75165-3 0  9990
2 45425  87.8936  27.1647 0002000  85.7330 274.4027 13.11424129298663
ONEWEB-0080             
1 45426U 20020C   26137.13134981  .00000331  00000+0  89773-3 0  9997
2 45426  87.8930  27.2420 0001596  72.6125 287.5177 13.11419799298639
ONEWEB-0090             
1 45427U 20020D   26137.16016933  .00000168  00000+0  43900-3 0  9997
2 45427  87.8921  27.2413 0001759  79.9741 280.1586 13.11414208298607
ONEWEB-0061             
1 45428U 20020E   26137.11579839 -.00000381  00000+0 -11115-2 0  9993
2 45428  87.8924  27.2353 0001854  79.5832 280.5505 13.11417017298557
ONEWEB-0081             
1 45429U 20020F   26137.17359213  .00002092  00000+0  58662-2 0  9999
2 45429  87.8916  27.2354 0001946  80.1625 279.9723 13.11402612298672
ONEWEB-0069             
1 45430U 20020G   26137.17167593 -.00000378  00000+0 -11124-2 0  9998
2 45430  87.8917  27.2364 0001925  80.7687 279.3658 13.10857074298606
ONEWEB-0031             
1 45431U 20020H   26137.13460152  .00000454  00000+0  12445-2 0  9992
2 45431  87.8914  27.2529 0001689  76.7763 283.3553 13.11417322298589
ONEWEB-0027             
1 45432U 20020J   26137.17232929 -.00025498  00000+0 -66102-1 0  9991
2 45432  87.9173  12.0135 0001880  81.7639 278.3706 13.17429462302274
ONEWEB-0064             
1 45433U 20020K   26137.13292132  .00001183  00000+0  33012-2 0  9998
2 45433  87.8929  27.2426 0001774  80.0369 280.0959 13.11417032298614
